[{"OBJECT_NAME":"STARLINK-37093","OBJECT_ID":"2026-050AD","EPOCH":"2026-03-19T13:33:27.860256","MEAN_MOTION":16.00670231,"ECCENTRICITY":0.0001079,"INCLINATION":53.1623,"RA_OF_ASC_NODE":232.5098,"ARG_OF_PERICENTER":125.0257,"MEAN_ANOMALY":235.0876,"EPHEMERIS_TYPE":0,"CLASSIFICATION_TYPE":"U","NORAD_CAT_ID":68194,"ELEMENT_SET_NO":999,"REV_AT_EPOCH":203,"BSTAR":-0.0012185,"MEAN_MOTION_DOT":-0.00668674,"MEAN_MOTION_DDOT":0.00016258},{"OBJECT_NAME":"STARLINK-37058","OBJECT_ID":"2026-050AE","EPOCH":"2026-03-19T07:32:38.613984","MEAN_MOTION":16.02049525,"ECCENTRICITY":0.0002524,"INCLINATION":53.1616,"RA_OF_ASC_NODE":233.7917,"ARG_OF_PERICENTER":340.0442,"MEAN_ANOMALY":20.049,"EPHEMERIS_TYPE":0,"CLASSIFICATION_TYPE":"U","NORAD_CAT_ID":68195,"ELEMENT_SET_NO":999,"REV_AT_EPOCH":43,"BSTAR":-0.0012605,"MEAN_MOTION_DOT":-0.00749084,"MEAN_MOTION_DDOT":0.00020203},{"OBJECT_NAME":"YAOGAN-50 02","OBJECT_ID":"2026-051A","EPOCH":"2026-03-20T00:00:02.495232","MEAN_MOTION":14.02354822,"ECCENTRICITY":0.0085589,"INCLINATION":141.9942,"RA_OF_ASC_NODE":256.6193,"ARG_OF_PERICENTER":153.1893,"MEAN_ANOMALY":207.328,"EPHEMERIS_TYPE":0,"CLASSIFICATION_TYPE":"U","NORAD_CAT_ID":68196,"ELEMENT_SET_NO":999,"REV_AT_EPOCH":63,"BSTAR":2.8234e-5,"MEAN_MOTION_DOT":2.41e-6,"MEAN_MOTION_DDOT":0},{"OBJECT_NAME":"CZ-6A R/B","OBJECT_ID":"2026-051B","EPOCH":"2026-03-20T03:18:15.851808","MEAN_MOTION":14.56359425,"ECCENTRICITY":0.0185722,"INCLINATION":142.0315,"RA_OF_ASC_NODE":259.0815,"ARG_OF_PERICENTER":125.2224,"MEAN_ANOMALY":236.6043,"EPHEMERIS_TYPE":0,"CLASSIFICATION_TYPE":"U","NORAD_CAT_ID":68197,"ELEMENT_SET_NO":999,"REV_AT_EPOCH":68,"BSTAR":0.00021336,"MEAN_MOTION_DOT":1.519e-5,"MEAN_MOTION_DDOT":0},{"OBJECT_NAME":"2026-052A","OBJECT_ID":"2026-052A","EPOCH":"2026-03-20T04:39:43.310592","MEAN_MOTION":15.09839841,"ECCENTRICITY":0.0012327,"INCLINATION":97.5381,"RA_OF_ASC_NODE":155.3814,"ARG_OF_PERICENTER":250.2942,"MEAN_ANOMALY":109.6958,"EPHEMERIS_TYPE":0,"CLASSIFICATION_TYPE":"U","NORAD_CAT_ID":68198,"ELEMENT_SET_NO":999,"REV_AT_EPOCH":61,"BSTAR":0.00031341,"MEAN_MOTION_DOT":5.015e-5,"MEAN_MOTION_DDOT":0},{"OBJECT_NAME":"YUXING-3 06","OBJECT_ID":"2026-052B","EPOCH":"2026-03-20T04:39:05.886432","MEAN_MOTION":15.09991699,"ECCENTRICITY":0.0011585,"INCLINATION":97.5385,"RA_OF_ASC_NODE":155.3814,"ARG_OF_PERICENTER":252.0532,"MEAN_ANOMALY":107.9434,"EPHEMERIS_TYPE":0,"CLASSIFICATION_TYPE":"U","NORAD_CAT_ID":68199,"ELEMENT_SET_NO":999,"REV_AT_EPOCH":61,"BSTAR":0.0001247,"MEAN_MOTION_DOT":1.964e-5,"MEAN_MOTION_DDOT":0},{"OBJECT_NAME":"2026-052C","OBJECT_ID":"2026-052C","EPOCH":"2026-03-19T19:06:04.641984","MEAN_MOTION":15.10119523,"ECCENTRICITY":0.00112569,"INCLINATION":97.5376,"RA_OF_ASC_NODE":154.9921,"ARG_OF_PERICENTER":255.3905,"MEAN_ANOMALY":104.6076,"EPHEMERIS_TYPE":0,"CLASSIFICATION_TYPE":"U","NORAD_CAT_ID":68200,"ELEMENT_SET_NO":999,"REV_AT_EPOCH":54,"BSTAR":-1.2504287e-5,"MEAN_MOTION_DOT":-2.68e-6,"MEAN_MOTION_DDOT":0},{"OBJECT_NAME":"2026-052D","OBJECT_ID":"2026-052D","EPOCH":"2026-03-20T04:38:02.062752","MEAN_MOTION":15.10285672,"ECCENTRICITY":0.0010354,"INCLINATION":97.5387,"RA_OF_ASC_NODE":155.3805,"ARG_OF_PERICENTER":250.7888,"MEAN_ANOMALY":109.2221,"EPHEMERIS_TYPE":0,"CLASSIFICATION_TYPE":"U","NORAD_CAT_ID":68201,"ELEMENT_SET_NO":999,"REV_AT_EPOCH":61,"BSTAR":0.00034297,"MEAN_MOTION_DOT":5.56e-5,"MEAN_MOTION_DDOT":0},{"OBJECT_NAME":"2026-052E","OBJECT_ID":"2026-052E","EPOCH":"2026-03-20T04:38:01.019040","MEAN_MOTION":15.10286777,"ECCENTRICITY":0.0010225,"INCLINATION":97.5382,"RA_OF_ASC_NODE":155.3816,"ARG_OF_PERICENTER":255.3415,"MEAN_ANOMALY":104.6681,"EPHEMERIS_TYPE":0,"CLASSIFICATION_TYPE":"U","NORAD_CAT_ID":68202,"ELEMENT_SET_NO":999,"REV_AT_EPOCH":61,"BSTAR":0.00029295,"MEAN_MOTION_DOT":4.739e-5,"MEAN_MOTION_DDOT":0},{"OBJECT_NAME":"2026-052F","OBJECT_ID":"2026-052F","EPOCH":"2026-03-20T04:37:03.995904","MEAN_MOTION":15.10539593,"ECCENTRICITY":0.0009452,"INCLINATION":97.5374,"RA_OF_ASC_NODE":155.3873,"ARG_OF_PERICENTER":246.7484,"MEAN_ANOMALY":113.275,"EPHEMERIS_TYPE":0,"CLASSIFICATION_TYPE":"U","NORAD_CAT_ID":68203,"ELEMENT_SET_NO":999,"REV_AT_EPOCH":61,"BSTAR":0.00030914,"MEAN_MOTION_DOT":5.039e-5,"MEAN_MOTION_DDOT":0},{"OBJECT_NAME":"2026-052G","OBJECT_ID":"2026-052G","EPOCH":"2026-03-20T04:36:52.452864","MEAN_MOTION":15.10591994,"ECCENTRICITY":0.0009087,"INCLINATION":97.5381,"RA_OF_ASC_NODE":155.3819,"ARG_OF_PERICENTER":249.9168,"MEAN_ANOMALY":110.1084,"EPHEMERIS_TYPE":0,"CLASSIFICATION_TYPE":"U","NORAD_CAT_ID":68204,"ELEMENT_SET_NO":999,"REV_AT_EPOCH":61,"BSTAR":0.00034852,"MEAN_MOTION_DOT":5.697e-5,"MEAN_MOTION_DDOT":0},{"OBJECT_NAME":"KZ-11 R/B","OBJECT_ID":"2026-052H","EPOCH":"2026-03-20T04:10:50.531808","MEAN_MOTION":14.66666243,"ECCENTRICITY":0.0549112,"INCLINATION":97.3429,"RA_OF_ASC_NODE":155.3572,"ARG_OF_PERICENTER":0.0838,"MEAN_ANOMALY":0.0367,"EPHEMERIS_TYPE":0,"CLASSIFICATION_TYPE":"U","NORAD_CAT_ID":68205,"ELEMENT_SET_NO":999,"REV_AT_EPOCH":59,"BSTAR":0.00046267,"MEAN_MOTION_DOT":0.00031122,"MEAN_MOTION_DDOT":1.8183e-6},{"OBJECT_NAME":"2026-052J","OBJECT_ID":"2026-052J","EPOCH":"2026-03-20T04:10:32.767104","MEAN_MOTION":14.6690917,"ECCENTRICITY":0.0548581,"INCLINATION":97.3434,"RA_OF_ASC_NODE":155.3568,"ARG_OF_PERICENTER":0.1683,"MEAN_ANOMALY":359.9611,"EPHEMERIS_TYPE":0,"CLASSIFICATION_TYPE":"U","NORAD_CAT_ID":68206,"ELEMENT_SET_NO":999,"REV_AT_EPOCH":59,"BSTAR":0.00078049,"MEAN_MOTION_DOT":0.00053223,"MEAN_MOTION_DDOT":2.1065e-6},{"OBJECT_NAME":"TEN-KOH 2","OBJECT_ID":"2025-241B","EPOCH":"2026-03-20T04:29:06.077760","MEAN_MOTION":15.22564747,"ECCENTRICITY":0.000446,"INCLINATION":51.6352,"RA_OF_ASC_NODE":22.9443,"ARG_OF_PERICENTER":191.7138,"MEAN_ANOMALY":168.3736,"EPHEMERIS_TYPE":0,"CLASSIFICATION_TYPE":"U","NORAD_CAT_ID":68261,"ELEMENT_SET_NO":999,"REV_AT_EPOCH":134,"BSTAR":0.00030984,"MEAN_MOTION_DOT":6.967e-5,"MEAN_MOTION_DDOT":0}]
