STARLINK-37093          
1 68194U 26050AD  26078.56490579 -.00668674  16258-3 -12185-2 0  9992
2 68194  53.1623 232.5098 0001079 125.0257 235.0876 16.00670231  2030
STARLINK-37058          
1 68195U 26050AE  26078.31433581 -.00749084  20203-3 -12605-2 0  9993
2 68195  53.1616 233.7917 0002524 340.0442  20.0490 16.02049525   431
YAOGAN-50 02            
1 68196U 26051A   26079.00002888  .00000241  00000+0  28234-4 0  9993
2 68196 141.9942 256.6193 0085589 153.1893 207.3280 14.02354822   631
CZ-6A R/B               
1 68197U 26051B   26079.13768347  .00001519  00000+0  21336-3 0  9991
2 68197 142.0315 259.0815 0185722 125.2224 236.6043 14.56359425   684
2026-052A               
1 68198U 26052A   26079.19425128  .00005015  00000+0  31341-3 0  9998
2 68198  97.5381 155.3814 0012327 250.2942 109.6958 15.09839841   616
YUXING-3 06             
1 68199U 26052B   26079.19381813  .00001964  00000+0  12470-3 0  9992
2 68199  97.5385 155.3814 0011585 252.0532 107.9434 15.09991699   611
2026-052C               
1 68200U 26052C   26078.79588706 -.00000268  00000+0 -12504-4 0  9997
2 68200  97.5376 154.9921 0011256 255.3905 104.6076 15.10119523   541
2026-052D               
1 68201U 26052D   26079.19307943  .00005560  00000+0  34297-3 0  9995
2 68201  97.5387 155.3805 0010354 250.7888 109.2221 15.10285672   617
2026-052E               
1 68202U 26052E   26079.19306735  .00004739  00000+0  29295-3 0  9993
2 68202  97.5382 155.3816 0010225 255.3415 104.6681 15.10286777   615
2026-052F               
1 68203U 26052F   26079.19240736  .00005039  00000+0  30914-3 0  9996
2 68203  97.5374 155.3873 0009452 246.7484 113.2750 15.10539593   610
2026-052G               
1 68204U 26052G   26079.19227376  .00005697  00000+0  34852-3 0  9997
2 68204  97.5381 155.3819 0009087 249.9168 110.1084 15.10591994   616
KZ-11 R/B               
1 68205U 26052H   26079.17419597  .00031122  18183-5  46267-3 0  9996
2 68205  97.3429 155.3572 0549112   0.0838   0.0367 14.66666243   590
2026-052J               
1 68206U 26052J   26079.17399036  .00053223  21065-5  78049-3 0  9994
2 68206  97.3434 155.3568 0548581   0.1683 359.9611 14.66909170   597
TEN-KOH 2               
1 68261U 25241B   26079.18687590  .00006967  00000+0  30984-3 0  9999
2 68261  51.6352  22.9443 0004460 191.7138 168.3736 15.22564747  1340
